NORAD_CAT_ID,OBJECT_NAME,OBJECT_TYPE,EPOCH,MEAN_MOTION,ECCENTRICITY,INCLINATION,RA_OF_ASC_NODE,ARG_OF_PERICENTER,MEAN_ANOMALY,BSTAR,MEAN_MOTION_DOT,MEAN_MOTION_DDOT,TLE_LINE0,TLE_LINE1,TLE_LINE2,SEMIMAJOR_AXIS,PERIOD,APOGEE,PERIGEE,DECAYED
53529.0,STARLINK-4478,PAYLOAD,2023-09-15 01:52:26,15.08844497,0.0001348,53.2171,184.0544,93.7634,266.3512,-2.6643e-05,-7.12e-06,0.0,0 STARLINK-4478,1 53529U 22101C   23258.07808275 -.00000712  00000-0 -26643-4 0  9994,2 53529  53.2171 184.0544 0001348  93.7634 266.3512 15.08844497 59299,6917.867,95.437,540.664,538.799,0.0
53529.0,STARLINK-4478,PAYLOAD,2023-09-15 05:03:12,15.08846136,0.0001297,53.2169,183.4589,93.8699,266.2441,2.345e-05,8.5e-07,0.0,0 STARLINK-4478,1 53529U 22101C   23258.21056215  .00000085  00000-0  23450-4 0  9993,2 53529  53.2169 183.4589 0001297  93.8699 266.2441 15.08846136 59318,6917.862,95.437,540.624,538.829,0.0
53529.0,STARLINK-4478,PAYLOAD,2023-09-16 04:53:59,15.08847785,0.0001213,53.2167,179.0006,96.6791,263.4339,0.00020688,3.007e-05,0.0,0 STARLINK-4478,1 53529U 22101C   23259.20416276  .00003007  00000-0  20688-3 0  9996,2 53529  53.2167 179.0006 0001213  96.6791 263.4339 15.08847785 59465,6917.857,95.437,540.561,538.882,0.0
53529.0,STARLINK-4478,PAYLOAD,2023-09-17 01:34:00,15.08832541,0.0001291,53.2169,175.134,90.2311,269.8829,-0.00011171,-2.065e-05,0.0,0 STARLINK-4478,1 53529U 22101C   23260.06528417 -.00002065  00000-0 -11171-3 0  9995,2 53529  53.2169 175.1340 0001291  90.2311 269.8829 15.08832541 59591,6917.903,95.438,540.661,538.875,0.0
53529.0,STARLINK-4478,PAYLOAD,2023-09-17 04:44:46,15.08832995,0.000127,53.2166,174.539,89.9258,270.1879,-0.00010754,-1.999e-05,0.0,0 STARLINK-4478,1 53529U 22101C   23260.19776422 -.00001999  00000-0 -10754-3 0  9991,2 53529  53.2166 174.5390 0001270  89.9258 270.1879 15.08832995 59614,6917.902,95.438,540.645,538.888,0.0
53529.0,STARLINK-4478,PAYLOAD,2023-09-18 01:24:46,15.08858992,0.0001295,53.2167,170.6729,82.2881,277.8258,0.00023748,3.496e-05,0.0,0 STARLINK-4478,1 53529U 22101C   23261.05887341  .00003496  00000-0  23748-3 0  9999,2 53529  53.2167 170.6729 0001295  82.2881 277.8258 15.08858992 59747,6917.822,95.436,540.583,538.791,0.0
53529.0,STARLINK-4478,PAYLOAD,2023-09-18 03:00:09,15.08856755,0.0001363,53.2168,170.377,88.7284,271.3864,0.00023647,3.479e-05,0.0,0 STARLINK-4478,1 53529U 22101C   23261.12511342  .00003479  00000-0  23647-3 0  9991,2 53529  53.2168 170.3770 0001363  88.7284 271.3864 15.08856755 59753,6917.829,95.436,540.637,538.751,0.0
53529.0,STARLINK-4478,PAYLOAD,2023-09-19 01:15:33,15.08830825,0.0001103,53.2156,166.2129,91.2262,268.8857,-0.00025526,-4.347e-05,0.0,0 STARLINK-4478,1 53529U 22101C   23262.05246873 -.00004347  00000-0 -25526-3 0  9993,2 53529  53.2156 166.2129 0001103  91.2262 268.8857 15.08830825 59897,6917.908,95.438,540.536,539.01,0.0
53529.0,STARLINK-4478,PAYLOAD,2023-09-20 02:41:43,15.08811441,0.0001298,53.2153,161.455,91.1466,268.9675,-0.00080367,-0.00013045,0.0,0 STARLINK-4478,1 53529U 22101C   23263.11231009 -.00013045  00000-0 -80367-3 0  9995,2 53529  53.2153 161.4550 0001298  91.1466 268.9675 15.08811441 60051,6917.968,95.439,540.731,538.935,0.0
53529.0,STARLINK-4478,PAYLOAD,2023-09-20 10:38:40,15.08799004,0.0001402,53.215,159.9683,84.9315,275.1837,-0.00053287,-8.749e-05,0.0,0 STARLINK-4478,1 53529U 22101C   23263.44352279 -.00008749  00000-0 -53287-3 0  9990,2 53529  53.2150 159.9683 0001402  84.9315 275.1837 15.08799004 60103,6918.006,95.44,540.841,538.901,0.0
53529.0,STARLINK-4478,PAYLOAD,2023-09-20 21:46:23,15.08799533,0.0001424,53.2154,157.8857,85.5616,274.5539,0.00011122,1.481e-05,0.0,0 STARLINK-4478,1 53529U 22101C   23263.90721759  .00001481  00000-0  11122-3 0  9990,2 53529  53.2154 157.8857 0001424  85.5616 274.5539 15.08799533 60178,6918.004,95.44,540.854,538.884,0.0
53529.0,STARLINK-4478,PAYLOAD,2023-09-21 02:32:33,15.08802086,0.0001399,53.2155,156.9929,85.3705,274.7446,0.00052021,7.992e-05,0.0,0 STARLINK-4478,1 53529U 22101C   23264.10594395  .00007992  00000-0  52021-3 0  9993,2 53529  53.2155 156.9929 0001399  85.3705 274.7446 15.08802086 60208,6917.996,95.44,540.829,538.893,0.0
53529.0,STARLINK-4478,PAYLOAD,2023-09-21 21:37:11,15.08849012,0.0001412,53.216,153.4252,89.7712,270.3442,0.0012104,0.00019033,0.0,0 STARLINK-4478,1 53529U 22101C   23264.90082501  .00019033  00000-0  12104-2 0  9998,2 53529  53.2160 153.4252 0001412  89.7712 270.3442 15.08849012 60328,6917.853,95.437,540.695,538.741,0.0
53529.0,STARLINK-4478,PAYLOAD,2023-09-21 23:12:34,15.08855516,0.0001406,53.2161,153.1276,91.3057,268.8097,0.0013749,0.00021671,0.0,0 STARLINK-4478,1 53529U 22101C   23264.96706392  .00021671  00000-0  13749-2 0  9992,2 53529  53.2161 153.1276 0001406  91.3057 268.8097 15.08855516 60331,6917.833,95.437,540.671,538.725,0.0
53529.0,STARLINK-4478,PAYLOAD,2023-09-22 02:23:20,15.08862463,0.0001385,53.2161,152.5326,92.6194,267.4957,0.0013741,0.00021662,0.0,0 STARLINK-4478,1 53529U 22101C   23265.09954155  .00021662  00000-0  13741-2 0  9991,2 53529  53.2161 152.5326 0001385  92.6194 267.4957 15.08862463 60353,6917.812,95.436,540.635,538.719,0.0
53529.0,STARLINK-4478,PAYLOAD,2023-09-22 21:27:55,15.08914305,0.0001243,53.216,148.9654,90.291,269.8224,0.001848,0.00029305,0.0,0 STARLINK-4478,1 53529U 22101C   23265.89439324  .00029305  00000-0  18480-2 0  9992,2 53529  53.2160 148.9654 0001243  90.2910 269.8224 15.08914305 60477,6917.653,95.433,540.378,538.658,0.0
53529.0,STARLINK-4478,PAYLOAD,2023-09-22 23:03:18,15.08917778,0.0001243,53.2159,148.6691,83.3767,276.7367,0.0018776,0.00029784,0.0,0 STARLINK-4478,1 53529U 22101C   23265.96063040  .00029784  00000-0  18776-2 0  9997,2 53529  53.2159 148.6691 0001243  83.3767 276.7367 15.08917778 60489,6917.643,95.433,540.368,538.648,0.0
53529.0,STARLINK-4478,PAYLOAD,2023-09-23 16:32:31,15.08898132,9.82e-05,53.2161,145.3973,119.583,240.526,0.0013763,0.00021719,0.0,0 STARLINK-4478,1 53529U 22101C   23266.68925062  .00021719  00000-0  13763-2 0  9999,2 53529  53.2161 145.3973 0000982 119.5830 240.5260 15.08898132 60596,6917.703,95.434,540.247,538.888,0.0
53529.0,STARLINK-4478,PAYLOAD,2023-09-24 02:04:51,15.08803169,0.0001632,53.2163,143.6136,105.8583,254.2589,0.001646,0.00025979,0.0,0 STARLINK-4478,1 53529U 22101C   23267.08670238  .00025979  00000-0  16460-2 0  9995,2 53529  53.2163 143.6136 0001632 105.8583 254.2589 15.08803169 60655,6917.993,95.44,540.987,538.729,0.0
53529.0,STARLINK-4478,PAYLOAD,2023-09-24 16:23:21,15.08798513,0.000218,53.2161,140.936,103.9845,256.1389,0.0011858,0.00018613,0.0,0 STARLINK-4478,1 53529U 22101C   23267.68288606  .00018613  00000-0  11858-2 0  9998,2 53529  53.2161 140.9360 0002180 103.9845 256.1389 15.08798513 60746,6918.007,95.44,541.38,538.364,0.0
53529.0,STARLINK-4478,PAYLOAD,2023-09-24 21:09:31,15.08789291,0.0001756,53.2165,140.0438,113.5826,246.5351,0.00059639,9.203e-05,0.0,0 STARLINK-4478,1 53529U 22101C   23267.88161225  .00009203  00000-0  59639-3 0  9992,2 53529  53.2165 140.0438 0001756 113.5826 246.5351 15.08789291 60779,6918.035,95.441,541.115,538.686,0.0
53529.0,STARLINK-4478,PAYLOAD,2023-09-25 00:20:18,15.08789658,0.0001753,53.217,139.4487,102.3295,257.7893,0.00053787,8.271e-05,0.0,0 STARLINK-4478,1 53529U 22101C   23268.01409766  .00008271  00000-0  53787-3 0  9995,2 53529  53.2170 139.4487 0001753 102.3295 257.7893 15.08789658 60798,6918.034,95.441,541.112,538.687,0.0
53529.0,STARLINK-4478,PAYLOAD,2023-09-25 19:24:56,15.08837856,0.0001569,53.2159,135.8802,114.781,245.3346,0.0012122,0.00019056,0.0,0 STARLINK-4478,1 53529U 22101C   23268.80898202  .00019056  00000-0  12122-2 0  9999,2 53529  53.2159 135.8802 0001569 114.7810 245.3346 15.08837856 60915,6917.887,95.438,540.837,538.667,0.0
53529.0,STARLINK-4478,PAYLOAD,2023-09-25 21:00:19,15.08848388,0.0001509,53.2152,135.5837,114.7584,245.3566,0.0015506,0.00024482,0.0,0 STARLINK-4478,1 53529U 22101C   23268.87522140  .00024482  00000-0  15506-2 0  9999,2 53529  53.2152 135.5837 0001509 114.7584 245.3566 15.08848388 60922,6917.855,95.437,540.764,538.676,0.0
53529.0,STARLINK-4478,PAYLOAD,2023-09-26 01:46:28,15.08862701,0.0001462,53.2151,134.6924,114.172,245.9425,0.0015694,0.00024793,0.0,0 STARLINK-4478,1 53529U 22101C   23269.07393848  .00024793  00000-0  15694-2 0  9996,2 53529  53.2151 134.6924 0001462 114.1720 245.9425 15.08862701 60950,6917.811,95.436,540.687,538.665,0.0
53529.0,STARLINK-4478,PAYLOAD,2023-09-26 20:51:04,15.08837546,0.0001211,53.215,131.125,92.0523,268.0607,-4.0861e-05,-9.38e-06,0.0,0 STARLINK-4478,1 53529U 22101C   23269.86880571 -.00000938  00000-0 -40861-4 0  9990,2 53529  53.2150 131.1250 0001211  92.0523 268.0607 15.08837546 61071,6917.888,95.438,540.591,538.915,0.0
53529.0,STARLINK-4478,PAYLOAD,2023-09-27 00:01:51,15.08829925,0.0001254,53.2149,130.5308,115.6038,244.5083,4.1701e-05,3.76e-06,0.0,0 STARLINK-4478,1 53529U 22101C   23270.00128517  .00000376  00000-0  41701-4 0  9991,2 53529  53.2149 130.5308 0001254 115.6038 244.5083 15.08829925 61097,6917.911,95.438,540.644,538.909,0.0
53529.0,STARLINK-4478,PAYLOAD,2023-09-27 07:58:47,15.08819027,0.0001365,53.2161,129.0378,95.8706,264.2442,0.00061408,9.493e-05,0.0,0 STARLINK-4478,1 53529U 22101C   23270.33249661  .00009493  00000-0  61408-3 0  9995,2 53529  53.2161 129.0378 0001365  95.8706 264.2442 15.08819027 61141,6917.944,95.439,540.754,538.865,0.0
53529.0,STARLINK-4478,PAYLOAD,2023-09-27 19:06:30,15.08813241,0.0001328,53.2148,126.9606,87.4501,272.6643,0.00076059,0.00011829,0.0,0 STARLINK-4478,1 53529U 22101C   23270.79618669  .00011829  00000-0  76059-3 0  9997,2 53529  53.2148 126.9606 0001328  87.4501 272.6643 15.08813241 61211,6917.962,95.439,540.746,538.908,0.0
53529.0,STARLINK-4478,PAYLOAD,2023-09-27 23:52:39,15.08820368,0.0001346,53.2152,126.0674,86.8672,273.2474,0.00028495,4.248e-05,0.0,0 STARLINK-4478,1 53529U 22101C   23270.99490726  .00004248  00000-0  28495-3 0  9999,2 53529  53.2152 126.0674 0001346  86.8672 273.2474 15.08820368 61244,6917.94,95.439,540.737,538.874,0.0
